CCSDS_OMM_VERS = 2.0
CREATION_DATE  = 
ORIGINATOR     = 

OBJECT_NAME    = TITAN 4B R/B
OBJECT_ID      = 2000-047B
CENTER_NAME    = EARTH
REF_FRAME      = TEME
TIME_SYSTEM    = UTC
MEAN_ELEMENT_THEORY = SGP/SGP4

EPOCH          = 2025-10-26T22:23:01.742784
MEAN_MOTION    = 15.08251790
ECCENTRICITY   = .0043852
INCLINATION    = 67.9909
RA_OF_ASC_NODE = 56.2613
ARG_OF_PERICENTER = 198.1592
MEAN_ANOMALY   = 161.7994

EPHEMERIS_TYPE = 0
CLASSIFICATION_TYPE = U
NORAD_CAT_ID   = 26474
ELEMENT_SET_NO = 999
REV_AT_EPOCH   = 37273
BSTAR          = .39414684E-3
MEAN_MOTION_DOT = .6126E-4
MEAN_MOTION_DDOT = 0

CCSDS_OMM_VERS = 2.0
CREATION_DATE  = 
ORIGINATOR     = 

OBJECT_NAME    = ENVISAT
OBJECT_ID      = 2002-009A
CENTER_NAME    = EARTH
REF_FRAME      = TEME
TIME_SYSTEM    = UTC
MEAN_ELEMENT_THEORY = SGP/SGP4

EPOCH          = 2025-10-26T21:24:34.365888
MEAN_MOTION    = 14.38973003
ECCENTRICITY   = .00013345
INCLINATION    = 98.3518
RA_OF_ASC_NODE = 251.8396
ARG_OF_PERICENTER = 85.8611
MEAN_ANOMALY   = 290.2933

EPHEMERIS_TYPE = 0
CLASSIFICATION_TYPE = U
NORAD_CAT_ID   = 27386
ELEMENT_SET_NO = 999
REV_AT_EPOCH   = 23993
BSTAR          = .87420367E-4
MEAN_MOTION_DOT = .227E-5
MEAN_MOTION_DDOT = 0

CCSDS_OMM_VERS = 2.0
CREATION_DATE  = 
ORIGINATOR     = 

OBJECT_NAME    = IDEFIX & ARIANE 42P R/B
OBJECT_ID      = 2002-021B
CENTER_NAME    = EARTH
REF_FRAME      = TEME
TIME_SYSTEM    = UTC
MEAN_ELEMENT_THEORY = SGP/SGP4

EPOCH          = 2025-10-26T17:36:18.328608
MEAN_MOTION    = 14.30898434
ECCENTRICITY   = .00109253
INCLINATION    = 98.5709
RA_OF_ASC_NODE = 235.0535
ARG_OF_PERICENTER = 218.1672
MEAN_ANOMALY   = 141.8738

EPHEMERIS_TYPE = 0
CLASSIFICATION_TYPE = U
NORAD_CAT_ID   = 27422
ELEMENT_SET_NO = 999
REV_AT_EPOCH   = 22486
BSTAR          = .19010021E-3
MEAN_MOTION_DOT = .456E-5
MEAN_MOTION_DDOT = 0

CCSDS_OMM_VERS = 2.0
CREATION_DATE  = 
ORIGINATOR     = 

OBJECT_NAME    = AQUA
OBJECT_ID      = 2002-022A
CENTER_NAME    = EARTH
REF_FRAME      = TEME
TIME_SYSTEM    = UTC
MEAN_ELEMENT_THEORY = SGP/SGP4

EPOCH          = 2025-10-26T22:36:23.162400
MEAN_MOTION    = 14.61639656
ECCENTRICITY   = .00014709
INCLINATION    = 98.3963
RA_OF_ASC_NODE = 260.0842
ARG_OF_PERICENTER = 52.9473
MEAN_ANOMALY   = 38.4117

EPHEMERIS_TYPE = 0
CLASSIFICATION_TYPE = U
NORAD_CAT_ID   = 27424
ELEMENT_SET_NO = 999
REV_AT_EPOCH   = 24919
BSTAR          = .33784433E-3
MEAN_MOTION_DOT = .1632E-4
MEAN_MOTION_DDOT = 0

CCSDS_OMM_VERS = 2.0
CREATION_DATE  = 
ORIGINATOR     = 

OBJECT_NAME    = CZ-4B R/B
OBJECT_ID      = 2002-024C
CENTER_NAME    = EARTH
REF_FRAME      = TEME
TIME_SYSTEM    = UTC
MEAN_ELEMENT_THEORY = SGP/SGP4

EPOCH          = 2025-10-26T21:52:55.200000
MEAN_MOTION    = 14.14513785
ECCENTRICITY   = .0050832
INCLINATION    = 98.9070
RA_OF_ASC_NODE = 348.8299
ARG_OF_PERICENTER = 43.8109
MEAN_ANOMALY   = 128.4961

EPHEMERIS_TYPE = 0
CLASSIFICATION_TYPE = U
NORAD_CAT_ID   = 27432
ELEMENT_SET_NO = 999
REV_AT_EPOCH   = 21032
BSTAR          = .57458501E-4
MEAN_MOTION_DOT = .67E-6
MEAN_MOTION_DDOT = 0

CCSDS_OMM_VERS = 2.0
CREATION_DATE  = 
ORIGINATOR     = 

OBJECT_NAME    = MIDORI II (ADEOS-II)
OBJECT_ID      = 2002-056A
CENTER_NAME    = EARTH
REF_FRAME      = TEME
TIME_SYSTEM    = UTC
MEAN_ELEMENT_THEORY = SGP/SGP4

EPOCH          = 2025-10-26T21:05:30.659712
MEAN_MOTION    = 14.29156862
ECCENTRICITY   = .0001932
INCLINATION    = 98.7555
RA_OF_ASC_NODE = 252.6090
ARG_OF_PERICENTER = 57.0354
MEAN_ANOMALY   = 303.1013

EPHEMERIS_TYPE = 0
CLASSIFICATION_TYPE = U
NORAD_CAT_ID   = 27597
ELEMENT_SET_NO = 999
REV_AT_EPOCH   = 19118
BSTAR          = .19839283E-3
MEAN_MOTION_DOT = .458E-5
MEAN_MOTION_DDOT = 0

CCSDS_OMM_VERS = 2.0
CREATION_DATE  = 
ORIGINATOR     = 

OBJECT_NAME    = H-2A R/B
OBJECT_ID      = 2002-056E
CENTER_NAME    = EARTH
REF_FRAME      = TEME
TIME_SYSTEM    = UTC
MEAN_ELEMENT_THEORY = SGP/SGP4

EPOCH          = 2025-10-26T22:05:49.532352
MEAN_MOTION    = 14.33626593
ECCENTRICITY   = .00697907
INCLINATION    = 98.2989
RA_OF_ASC_NODE = 260.5606
ARG_OF_PERICENTER = 199.3429
MEAN_ANOMALY   = 226.4125

EPHEMERIS_TYPE = 0
CLASSIFICATION_TYPE = U
NORAD_CAT_ID   = 27601
ELEMENT_SET_NO = 999
REV_AT_EPOCH   = 19494
BSTAR          = .16919309E-3
MEAN_MOTION_DOT = .44E-5
MEAN_MOTION_DDOT = 0

CCSDS_OMM_VERS = 2.0
CREATION_DATE  = 
ORIGINATOR     = 

OBJECT_NAME    = CZ-4B R/B
OBJECT_ID      = 2003-049C
CENTER_NAME    = EARTH
REF_FRAME      = TEME
TIME_SYSTEM    = UTC
MEAN_ELEMENT_THEORY = SGP/SGP4

EPOCH          = 2025-10-26T21:32:34.426752
MEAN_MOTION    = 14.54842123
ECCENTRICITY   = .00471315
INCLINATION    = 98.6754
RA_OF_ASC_NODE = 284.7003
ARG_OF_PERICENTER = 280.4023
MEAN_ANOMALY   = 79.1862

EPHEMERIS_TYPE = 0
CLASSIFICATION_TYPE = U
NORAD_CAT_ID   = 28059
ELEMENT_SET_NO = 999
REV_AT_EPOCH   = 16714
BSTAR          = .17121271E-3
MEAN_MOTION_DOT = .694E-5
MEAN_MOTION_DDOT = 0

CCSDS_OMM_VERS = 2.0
CREATION_DATE  = 
ORIGINATOR     = 

OBJECT_NAME    = CZ-2C R/B
OBJECT_ID      = 2004-012C
CENTER_NAME    = EARTH
REF_FRAME      = TEME
TIME_SYSTEM    = UTC
MEAN_ELEMENT_THEORY = SGP/SGP4

EPOCH          = 2025-10-26T21:48:39.027456
MEAN_MOTION    = 15.51443888
ECCENTRICITY   = .00210369
INCLINATION    = 97.7497
RA_OF_ASC_NODE = 348.7970
ARG_OF_PERICENTER = 82.9262
MEAN_ANOMALY   = 277.4380

EPHEMERIS_TYPE = 0
CLASSIFICATION_TYPE = U
NORAD_CAT_ID   = 28222
ELEMENT_SET_NO = 999
REV_AT_EPOCH   = 18345
BSTAR          = .57945519E-3
MEAN_MOTION_DOT = .34484E-3
MEAN_MOTION_DDOT = 0

CCSDS_OMM_VERS = 2.0
CREATION_DATE  = 
ORIGINATOR     = 

OBJECT_NAME    = SL-16 R/B
OBJECT_ID      = 2004-021B
CENTER_NAME    = EARTH
REF_FRAME      = TEME
TIME_SYSTEM    = UTC
MEAN_ELEMENT_THEORY = SGP/SGP4

EPOCH          = 2025-10-26T22:48:45.069696
MEAN_MOTION    = 14.14572295
ECCENTRICITY   = .0007359
INCLINATION    = 70.9990
RA_OF_ASC_NODE = 153.1536
ARG_OF_PERICENTER = 251.9196
MEAN_ANOMALY   = 108.1125

EPHEMERIS_TYPE = 0
CLASSIFICATION_TYPE = U
NORAD_CAT_ID   = 28353
ELEMENT_SET_NO = 999
REV_AT_EPOCH   = 10392
BSTAR          = -.11370043E-3
MEAN_MOTION_DOT = -.266E-5
MEAN_MOTION_DDOT = 0

CCSDS_OMM_VERS = 2.0
CREATION_DATE  = 
ORIGINATOR     = 

OBJECT_NAME    = CZ-4B R/B
OBJECT_ID      = 2004-035C
CENTER_NAME    = EARTH
REF_FRAME      = TEME
TIME_SYSTEM    = UTC
MEAN_ELEMENT_THEORY = SGP/SGP4

EPOCH          = 2025-10-26T19:59:59.212608
MEAN_MOTION    = 15.26296712
ECCENTRICITY   = .00359772
INCLINATION    = 97.3671
RA_OF_ASC_NODE = 330.8230
ARG_OF_PERICENTER = 83.4152
MEAN_ANOMALY   = 277.1180

EPHEMERIS_TYPE = 0
CLASSIFICATION_TYPE = U
NORAD_CAT_ID   = 28415
ELEMENT_SET_NO = 999
REV_AT_EPOCH   = 15947
BSTAR          = .36879545E-3
MEAN_MOTION_DOT = .9678E-4
MEAN_MOTION_DDOT = 0

CCSDS_OMM_VERS = 2.0
CREATION_DATE  = 
ORIGINATOR     = 

OBJECT_NAME    = CZ-2C R/B
OBJECT_ID      = 2004-046B
CENTER_NAME    = EARTH
REF_FRAME      = TEME
TIME_SYSTEM    = UTC
MEAN_ELEMENT_THEORY = SGP/SGP4

EPOCH          = 2025-10-26T18:24:41.095584
MEAN_MOTION    = 14.26910162
ECCENTRICITY   = .01392371
INCLINATION    = 98.1941
RA_OF_ASC_NODE = 218.0759
ARG_OF_PERICENTER = 190.4233
MEAN_ANOMALY   = 169.4056

EPHEMERIS_TYPE = 0
CLASSIFICATION_TYPE = U
NORAD_CAT_ID   = 28480
ELEMENT_SET_NO = 999
REV_AT_EPOCH   = 8940
BSTAR          = .1014958E-3
MEAN_MOTION_DOT = .232E-5
MEAN_MOTION_DDOT = 0

