TITAN 4B R/B            
1 26474U 00047B   25299.93265906  .00006126  00000+0  39415-3 0  9990
2 26474  67.9909  56.2613 0043852 198.1592 161.7994 15.08251790372732
ENVISAT                 
1 27386U 02009A   25299.89206442  .00000227  00000+0  87420-4 0  9994
2 27386  98.3518 251.8396 0001334  85.8611 290.2933 14.38973003239938
IDEFIX & ARIANE 42P R/B 
1 27422U 02021B   25299.73354547  .00000456  00000+0  19010-3 0  9995
2 27422  98.5709 235.0535 0010925 218.1672 141.8738 14.30898434224862
AQUA                    
1 27424U 02022A   25299.94193475  .00001632  00000+0  33784-3 0  9993
2 27424  98.3963 260.0842 0001470  52.9473  38.4117 14.61639656249199
CZ-4B R/B               
1 27432U 02024C   25299.91175000  .00000067  00000+0  57459-4 0  9992
2 27432  98.9070 348.8299 0050832  43.8109 128.4961 14.14513785210327
MIDORI II (ADEOS-II)    
1 27597U 02056A   25299.87882708  .00000458  00000+0  19839-3 0  9997
2 27597  98.7555 252.6090 0001932  57.0354 303.1013 14.29156862191189
H-2A R/B                
1 27601U 02056E   25299.92071218  .00000440  00000+0  16919-3 0  9992
2 27601  98.2989 260.5606 0069790 199.3429 226.4125 14.33626593194947
CZ-4B R/B               
1 28059U 03049C   25299.89762068  .00000694  00000+0  17121-3 0  9996
2 28059  98.6754 284.7003 0047131 280.4023  79.1862 14.54842123167140
CZ-2C R/B               
1 28222U 04012C   25299.90878504  .00034484  00000+0  57946-3 0  9997
2 28222  97.7497 348.7970 0021036  82.9262 277.4380 15.51443888183459
SL-16 R/B               
1 28353U 04021B   25299.95052164 -.00000266  00000+0 -11370-3 0  9997
2 28353  70.9990 153.1536 0007359 251.9196 108.1125 14.14572295103921
CZ-4B R/B               
1 28415U 04035C   25299.83332422  .00009678  00000+0  36880-3 0  9993
2 28415  97.3671 330.8230 0035977  83.4152 277.1180 15.26296712159471
CZ-2C R/B               
1 28480U 04046B   25299.76714231  .00000232  00000+0  10150-3 0  9990
2 28480  98.1941 218.0759 0139237 190.4233 169.4056 14.26910162 89409
